[
  {
    "id": "east_sea",
    "name_ko": "동해",
    "name_en": "East Sea",
    "description_ko": "한류와 난류가 만나는 바다예요!",
    "max_depth": 4000,
    "available_zones": ["sunlight", "twilight", "midnight", "abyssal"],
    "position": { "lat": 38, "lng": 130 },
    "color": "#1E40AF",
    "image_url": "https://images.unsplash.com/photo-1659844786614-31ddc78d1840?w=400&h=400&fit=crop",
    "image_credit": "Unsplash"
  },
  {
    "id": "south_sea",
    "name_ko": "남해",
    "name_en": "South Sea",
    "description_ko": "따뜻한 물에 다양한 생물들이 살아요!",
    "max_depth": 200,
    "available_zones": ["sunlight"],
    "position": { "lat": 34, "lng": 128 },
    "color": "#0EA5E9",
    "image_url": "https://images.unsplash.com/photo-1769442872142-c15b691cea6b?w=400&h=400&fit=crop",
    "image_credit": "Unsplash"
  },
  {
    "id": "west_sea",
    "name_ko": "서해",
    "name_en": "West Sea",
    "description_ko": "얕고 넓은 바다예요. 갯벌이 많아요!",
    "max_depth": 100,
    "available_zones": ["sunlight"],
    "position": { "lat": 36, "lng": 125 },
    "color": "#06B6D4",
    "image_url": "https://images.unsplash.com/photo-1589109531820-c5123d4a7bcf?w=400&h=400&fit=crop",
    "image_credit": "Unsplash"
  },
  {
    "id": "pacific",
    "name_ko": "태평양",
    "name_en": "Pacific Ocean",
    "description_ko": "세계에서 가장 크고 깊은 바다예요!",
    "max_depth": 11000,
    "available_zones": ["sunlight", "twilight", "midnight", "abyssal", "hadal"],
    "position": { "lat": 0, "lng": 160 },
    "color": "#1E3A8A",
    "image_url": "https://images.unsplash.com/photo-1621739172274-bc37ab737de3?w=400&h=400&fit=crop",
    "image_credit": "Unsplash"
  },
  {
    "id": "atlantic",
    "name_ko": "대서양",
    "name_en": "Atlantic Ocean",
    "description_ko": "두 번째로 큰 바다예요. 다양한 생물이 살아요!",
    "max_depth": 8400,
    "available_zones": ["sunlight", "twilight", "midnight", "abyssal"],
    "position": { "lat": 30, "lng": -30 },
    "color": "#1E40AF",
    "image_url": "https://images.unsplash.com/photo-1626436926472-43a4ff92de22?w=400&h=400&fit=crop",
    "image_credit": "Unsplash"
  },
  {
    "id": "indian",
    "name_ko": "인도양",
    "name_en": "Indian Ocean",
    "description_ko": "따뜻한 열대 바다예요. 산호초가 아름다워요!",
    "max_depth": 7400,
    "available_zones": ["sunlight", "twilight", "midnight", "abyssal"],
    "position": { "lat": -20, "lng": 70 },
    "color": "#0891B2",
    "image_url": "https://images.unsplash.com/photo-1667673077638-3dbc8f39d357?w=400&h=400&fit=crop",
    "image_credit": "Unsplash"
  },
  {
    "id": "arctic",
    "name_ko": "북극해",
    "name_en": "Arctic Ocean",
    "description_ko": "차가운 북쪽 바다예요. 빙하가 떠다녀요!",
    "max_depth": 5500,
    "available_zones": ["sunlight", "twilight", "midnight", "abyssal"],
    "position": { "lat": 80, "lng": 0 },
    "color": "#67E8F9",
    "image_url": "https://images.unsplash.com/photo-1536926272468-cbd90ef4c553?w=400&h=400&fit=crop",
    "image_credit": "Unsplash"
  },
  {
    "id": "antarctic",
    "name_ko": "남극해",
    "name_en": "Antarctic Ocean",
    "description_ko": "남쪽 끝 얼음 바다예요. 펭귄과 물개가 살아요!",
    "max_depth": 7200,
    "available_zones": ["sunlight", "twilight", "midnight", "abyssal"],
    "position": { "lat": -70, "lng": 0 },
    "color": "#A5F3FC",
    "image_url": "https://images.unsplash.com/photo-1670285247125-85d282a2bc9e?w=400&h=400&fit=crop",
    "image_credit": "Unsplash"
  }
]
